*******************************************************************************
Ephemeris / WWW_USER Mon Jul 15 19:17:07 2024 Pasadena, USA      / Horizons    
*******************************************************************************
Target body name: (2018 YU2)                      {source: JPL#5}
Center body name: Earth (399)                     {source: DE441}
Center-site name: Gemini South Obs., Cerro Pachon
*******************************************************************************
Start time      : A.D. 2019-Jan-27 23:53:00.0000 UT      
Stop  time      : A.D. 2019-Jan-28 09:58:00.0000 UT      
Step-size       : 1 minutes
*******************************************************************************
Target pole/equ : undefined
Target radii    : undefined                                                    
Center geodetic : 289.2634, -30.2406227, 2.71233  {E-lon(deg),Lat(deg),Alt(km)}
Center cylindric: 289.2634,5517.21435,-3194.81213 {E-lon(deg),Dxy(km),Dz(km)}
Center pole/equ : ITRF93                          {East-longitude positive}
Center radii    : 6378.137, 6378.137, 6356.752 km {Equator_a, b, pole_c}       
Target primary  : Sun
Vis. interferer : MOON (R_eq= 1737.400) km        {source: DE441}
Rel. light bend : Sun                             {source: DE441}
Rel. lght bnd GM: 1.3271E+11 km^3/s^2                                          
Small-body perts: Yes                             {source: SB441-N16}
Atmos refraction: NO (AIRLESS)
RA format       : HMS
Time format     : CAL 
Calendar mode   : Mixed Julian/Gregorian
RTS-only print  : NO       
EOP file        : eop.240715.p241008                                           
EOP coverage    : DATA-BASED 1962-JAN-20 TO 2024-JUL-15. PREDICTS-> 2024-OCT-07
Units conversion: 1 au= 149597870.700 km, c= 299792.458 km/s, 1 day= 86400.0 s 
Table cut-offs 1: Elevation (-90.0deg=NO ),Airmass (>38.000=NO), Daylight (YES)
Table cut-offs 2: Solar elongation (  0.0,180.0=NO ),Local Hour Angle( 0.0=NO )
Table cut-offs 3: RA/DEC angular rate (     0.0=NO )                           
*******************************************************************************
Initial IAU76/J2000 heliocentric ecliptic osculating elements (au, days, deg.):
  EPOCH=  2458477.5 ! 2018-Dec-25.00 (TDB)         Residual RMS= .22887        
   EC= .1533598773405833   QR= .920984914841031    TP= 2458549.1486254167      
   OM= 279.4515303175068   W=  253.4059234937716   IN= 2.850769624588425       
  Equivalent ICRF heliocentric cartesian coordinates (au, au/d):
   X=-6.842297687009524E-02  Y= 9.429126817220428E-01  Z= 4.143187104036840E-01
  VX=-1.695115058702848E-02 VY=-2.997207899955317E-03 VZ=-2.239432528215744E-03
Asteroid physical parameters (km, seconds, rotational period in hours):        
   GM= n.a.                RAD= n.a.               ROTPER= n.a.                
   H= 26.5                 G= .150                 B-V= n.a.                   
                           ALBEDO= n.a.            STYP= n.a.                  
*******************************************************************************
 Date__(UT)__HR:MN     R.A._________(ICRF)_________DEC
******************************************************
$$SOE
 2019-Jan-28 03:59     17 57 16.719079 -54 50 05.42361
 2019-Jan-28 04:00     17 57 17.062711 -54 50 03.50978
 2019-Jan-28 04:01     17 57 17.406140 -54 50 01.59842
 2019-Jan-28 04:02     17 57 17.749365 -54 49 59.68951
 2019-Jan-28 04:03     17 57 18.092384 -54 49 57.78306
 2019-Jan-28 04:04     17 57 18.435197 -54 49 55.87905
 2019-Jan-28 04:05     17 57 18.777801 -54 49 53.97749
 2019-Jan-28 04:06     17 57 19.120194 -54 49 52.07837
 2019-Jan-28 04:07     17 57 19.462377 -54 49 50.18167
 2019-Jan-28 04:08     17 57 19.804347 -54 49 48.28740
 2019-Jan-28 04:09     17 57 20.146103 -54 49 46.39555
 2019-Jan-28 04:10     17 57 20.487643 -54 49 44.50611
 2019-Jan-28 04:11     17 57 20.828966 -54 49 42.61907
 2019-Jan-28 04:12     17 57 21.170071 -54 49 40.73444
 2019-Jan-28 04:13     17 57 21.510957 -54 49 38.85220
 2019-Jan-28 04:14     17 57 21.851621 -54 49 36.97235
 2019-Jan-28 04:15     17 57 22.192063 -54 49 35.09488
 2019-Jan-28 04:16     17 57 22.532281 -54 49 33.21979
 2019-Jan-28 04:17     17 57 22.872273 -54 49 31.34707
 2019-Jan-28 04:18     17 57 23.212039 -54 49 29.47671
 2019-Jan-28 04:19     17 57 23.551577 -54 49 27.60871
 2019-Jan-28 04:20     17 57 23.890886 -54 49 25.74307
 2019-Jan-28 04:21     17 57 24.229964 -54 49 23.87976
 2019-Jan-28 04:22     17 57 24.568810 -54 49 22.01879
 2019-Jan-28 04:23     17 57 24.907423 -54 49 20.16016
 2019-Jan-28 04:24     17 57 25.245801 -54 49 18.30385
 2019-Jan-28 04:25     17 57 25.583943 -54 49 16.44986
 2019-Jan-28 04:26  m  17 57 25.921847 -54 49 14.59818
 2019-Jan-28 04:27  m  17 57 26.259512 -54 49 12.74881
 2019-Jan-28 04:28  m  17 57 26.596938 -54 49 10.90173
 2019-Jan-28 04:29  m  17 57 26.934122 -54 49 09.05695
 2019-Jan-28 04:30  m  17 57 27.271063 -54 49 07.21445
 2019-Jan-28 04:31  m  17 57 27.607760 -54 49 05.37423
 2019-Jan-28 04:32  m  17 57 27.944212 -54 49 03.53628
 2019-Jan-28 04:33  m  17 57 28.280417 -54 49 01.70060
 2019-Jan-28 04:34  m  17 57 28.616375 -54 48 59.86717
 2019-Jan-28 04:35  m  17 57 28.952082 -54 48 58.03599
 2019-Jan-28 04:36  m  17 57 29.287540 -54 48 56.20706
 2019-Jan-28 04:37  m  17 57 29.622745 -54 48 54.38037
 2019-Jan-28 04:38  m  17 57 29.957697 -54 48 52.55590
 2019-Jan-28 04:39  m  17 57 30.292395 -54 48 50.73366
 2019-Jan-28 04:40  m  17 57 30.626837 -54 48 48.91363
 2019-Jan-28 04:41  m  17 57 30.961022 -54 48 47.09581
 2019-Jan-28 04:42  m  17 57 31.294949 -54 48 45.28019
 2019-Jan-28 04:43  m  17 57 31.628616 -54 48 43.46676
 2019-Jan-28 04:44  m  17 57 31.962022 -54 48 41.65552
 2019-Jan-28 04:45  m  17 57 32.295166 -54 48 39.84646
 2019-Jan-28 04:46  m  17 57 32.628047 -54 48 38.03957
 2019-Jan-28 04:47  m  17 57 32.960663 -54 48 36.23484
 2019-Jan-28 04:48  m  17 57 33.293014 -54 48 34.43227
 2019-Jan-28 04:49  m  17 57 33.625097 -54 48 32.63185
 2019-Jan-28 04:50  m  17 57 33.956912 -54 48 30.83357
 2019-Jan-28 04:51  m  17 57 34.288458 -54 48 29.03742
 2019-Jan-28 04:52  m  17 57 34.619733 -54 48 27.24340
 2019-Jan-28 04:53  m  17 57 34.950736 -54 48 25.45150
 2019-Jan-28 04:54  m  17 57 35.281466 -54 48 23.66171
 2019-Jan-28 04:55  m  17 57 35.611921 -54 48 21.87402
 2019-Jan-28 04:56  m  17 57 35.942101 -54 48 20.08843
 2019-Jan-28 04:57  m  17 57 36.272004 -54 48 18.30492
 2019-Jan-28 04:58  m  17 57 36.601629 -54 48 16.52350
 2019-Jan-28 04:59  m  17 57 36.930974 -54 48 14.74414
 2019-Jan-28 05:00  m  17 57 37.260040 -54 48 12.96685
 2019-Jan-28 05:01  m  17 57 37.588824 -54 48 11.19162
 2019-Jan-28 05:02  m  17 57 37.917325 -54 48 09.41843
 2019-Jan-28 05:03  m  17 57 38.245542 -54 48 07.64728
 2019-Jan-28 05:04  m  17 57 38.573474 -54 48 05.87816
 2019-Jan-28 05:05  m  17 57 38.901120 -54 48 04.11107
 2019-Jan-28 05:06  m  17 57 39.228479 -54 48 02.34599
 2019-Jan-28 05:07  m  17 57 39.555549 -54 48 00.58292
 2019-Jan-28 05:08  m  17 57 39.882329 -54 47 58.82185
 2019-Jan-28 05:09  m  17 57 40.208819 -54 47 57.06277
 2019-Jan-28 05:10  m  17 57 40.535017 -54 47 55.30568
 2019-Jan-28 05:11  m  17 57 40.860921 -54 47 53.55055
 2019-Jan-28 05:12  m  17 57 41.186532 -54 47 51.79739
 2019-Jan-28 05:13  m  17 57 41.511847 -54 47 50.04619
 2019-Jan-28 05:14  m  17 57 41.836865 -54 47 48.29694
 2019-Jan-28 05:15  m  17 57 42.161586 -54 47 46.54963
 2019-Jan-28 05:16  m  17 57 42.486009 -54 47 44.80425
 2019-Jan-28 05:17  m  17 57 42.810131 -54 47 43.06080
 2019-Jan-28 05:18  m  17 57 43.133953 -54 47 41.31926
 2019-Jan-28 05:19  m  17 57 43.457473 -54 47 39.57962
 2019-Jan-28 05:20  m  17 57 43.780690 -54 47 37.84189
 2019-Jan-28 05:21  m  17 57 44.103603 -54 47 36.10604
 2019-Jan-28 05:22  m  17 57 44.426210 -54 47 34.37207
 2019-Jan-28 05:23  m  17 57 44.748512 -54 47 32.63998
 2019-Jan-28 05:24  m  17 57 45.070506 -54 47 30.90975
 2019-Jan-28 05:25  m  17 57 45.392192 -54 47 29.18137
 2019-Jan-28 05:26  m  17 57 45.713568 -54 47 27.45483
 2019-Jan-28 05:27  m  17 57 46.034634 -54 47 25.73014
 2019-Jan-28 05:28  m  17 57 46.355388 -54 47 24.00727
 2019-Jan-28 05:29  m  17 57 46.675830 -54 47 22.28622
 2019-Jan-28 05:30  m  17 57 46.995958 -54 47 20.56698
 2019-Jan-28 05:31  m  17 57 47.315772 -54 47 18.84954
 2019-Jan-28 05:32  m  17 57 47.635270 -54 47 17.13389
 2019-Jan-28 05:33  m  17 57 47.954452 -54 47 15.42003
 2019-Jan-28 05:34  m  17 57 48.273316 -54 47 13.70793
 2019-Jan-28 05:35  m  17 57 48.591861 -54 47 11.99761
 2019-Jan-28 05:36  m  17 57 48.910087 -54 47 10.28903
 2019-Jan-28 05:37  m  17 57 49.227992 -54 47 08.58221
 2019-Jan-28 05:38  m  17 57 49.545575 -54 47 06.87712
 2019-Jan-28 05:39  m  17 57 49.862836 -54 47 05.17376
 2019-Jan-28 05:40  m  17 57 50.179774 -54 47 03.47212
 2019-Jan-28 05:41  m  17 57 50.496387 -54 47 01.77218
 2019-Jan-28 05:42  m  17 57 50.812674 -54 47 00.07395
 2019-Jan-28 05:43  m  17 57 51.128635 -54 46 58.37741
 2019-Jan-28 05:44  m  17 57 51.444269 -54 46 56.68255
 2019-Jan-28 05:45  m  17 57 51.759574 -54 46 54.98936
 2019-Jan-28 05:46  m  17 57 52.074551 -54 46 53.29783
 2019-Jan-28 05:47  m  17 57 52.389197 -54 46 51.60796
 2019-Jan-28 05:48  m  17 57 52.703511 -54 46 49.91973
 2019-Jan-28 05:49  m  17 57 53.017494 -54 46 48.23313
 2019-Jan-28 05:50  m  17 57 53.331144 -54 46 46.54816
 2019-Jan-28 05:51  m  17 57 53.644460 -54 46 44.86480
 2019-Jan-28 05:52  m  17 57 53.957442 -54 46 43.18305
 2019-Jan-28 05:53  m  17 57 54.270087 -54 46 41.50289
 2019-Jan-28 05:54  m  17 57 54.582396 -54 46 39.82432
 2019-Jan-28 05:55  m  17 57 54.894368 -54 46 38.14732
 2019-Jan-28 05:56  m  17 57 55.206002 -54 46 36.47189
 2019-Jan-28 05:57  m  17 57 55.517296 -54 46 34.79802
 2019-Jan-28 05:58  m  17 57 55.828250 -54 46 33.12570
 2019-Jan-28 05:59  m  17 57 56.138863 -54 46 31.45491
 2019-Jan-28 06:00  m  17 57 56.449135 -54 46 29.78565
 2019-Jan-28 06:01  m  17 57 56.759064 -54 46 28.11791
